NORAD_CAT_ID,OBJECT_NAME,OBJECT_TYPE,EPOCH,MEAN_MOTION,ECCENTRICITY,INCLINATION,RA_OF_ASC_NODE,ARG_OF_PERICENTER,MEAN_ANOMALY,BSTAR,MEAN_MOTION_DOT,MEAN_MOTION_DDOT,TLE_LINE0,TLE_LINE1,TLE_LINE2,SEMIMAJOR_AXIS,PERIOD,APOGEE,PERIGEE,DECAYED
51131.0,STARLINK-3388,PAYLOAD,2023-10-04 10:52:05,15.08850909,0.0001497,53.2148,322.0857,91.5167,268.5997,0.00053929,8.308e-05,0.0,0 STARLINK-3388,1 51131U 22005AD  23277.45284561  .00008308  00000-0  53929-3 0  9996,2 51131  53.2148 322.0857 0001497  91.5167 268.5997 15.08850909 94782,6917.847,95.437,540.748,538.676,0.0
51131.0,STARLINK-3388,PAYLOAD,2023-10-04 20:24:24,15.08833096,0.0001334,53.2148,320.3011,86.5211,273.5934,0.00010422,1.371e-05,0.0,0 STARLINK-3388,1 51131U 22005AD  23277.85028847  .00001371  00000-0  10422-3 0  9997,2 51131  53.2148 320.3011 0001334  86.5211 273.5934 15.08833096 94841,6917.901,95.438,540.689,538.844,0.0
51131.0,STARLINK-3388,PAYLOAD,2023-10-05 09:07:30,15.08851478,0.0001581,53.2156,317.9212,88.5424,271.5749,0.0017936,0.00028382,0.0,0 STARLINK-3388,1 51131U 22005AD  23278.38021078  .00028382  00000-0  17936-2 0  9992,2 51131  53.2156 317.9212 0001581  88.5424 271.5749 15.08851478 96047,6917.845,95.437,540.804,538.617,0.0
51131.0,STARLINK-3388,PAYLOAD,2023-10-05 13:53:39,15.08862537,0.0001613,53.2157,317.0289,87.8602,272.2575,0.0019457,0.00030833,0.0,0 STARLINK-3388,1 51131U 22005AD  23278.57892861  .00030833  00000-0  19457-2 0  9993,2 51131  53.2157 317.0289 0001613  87.8602 272.2575 15.08862537 94950,6917.812,95.436,540.792,538.561,0.0
51131.0,STARLINK-3388,PAYLOAD,2023-10-06 02:36:44,15.08849636,0.0001616,53.2151,314.6507,100.1277,259.9898,0.00093162,0.00014574,0.0,0 STARLINK-3388,1 51131U 22005AD  23279.10884959  .00014574  00000-0  93162-3 0  9992,2 51131  53.2151 314.6507 0001616 100.1277 259.9898 15.08849636 96159,6917.851,95.437,540.834,538.598,0.0
51131.0,STARLINK-3388,PAYLOAD,2023-10-06 12:09:03,15.08858453,0.0001535,53.2155,312.8657,100.0926,260.0239,0.00084363,0.00013171,0.0,0 STARLINK-3388,1 51131U 22005AD  23279.50628622  .00013171  00000-0  84363-3 0  9994,2 51131  53.2155 312.8657 0001535 100.0926 260.0239 15.08858453 95090,6917.824,95.436,540.751,538.627,0.0
51131.0,STARLINK-3388,PAYLOAD,2023-10-07 08:49:04,15.08846322,0.000163,53.2168,309.0,90.5159,269.6019,0.0007441,0.00011576,0.0,0 STARLINK-3388,1 51131U 22005AD  23280.36741041  .00011576  00000-0  74410-3 0  9990,2 51131  53.2168 309.0000 0001630  90.5159 269.6019 15.08846322 96343,6917.861,95.437,540.854,538.598,0.0
51131.0,STARLINK-3388,PAYLOAD,2023-10-07 11:59:50,15.08850613,0.0001516,53.2165,308.4048,88.0986,272.018,0.00072376,0.00011253,0.0,0 STARLINK-3388,1 51131U 22005AD  23280.49988921  .00011253  00000-0  72376-3 0  9995,2 51131  53.2165 308.4048 0001516  88.0986 272.0180 15.08850613 95241,6917.848,95.437,540.762,538.664,0.0
51131.0,STARLINK-3388,PAYLOAD,2023-10-08 08:39:51,15.08848943,0.0001571,53.2169,304.5408,88.5719,271.5453,0.00035341,5.342e-05,0.0,0 STARLINK-3388,1 51131U 22005AD  23281.36101022  .00005342  00000-0  35341-3 0  9994,2 51131  53.2169 304.5408 0001571  88.5719 271.5453 15.08848943 96490,6917.853,95.437,540.805,538.631,0.0
51131.0,STARLINK-3388,PAYLOAD,2023-10-08 13:26:00,15.08858162,0.0001592,53.2163,303.6474,88.8975,271.22,0.00060711,9.392e-05,0.0,0 STARLINK-3388,1 51131U 22005AD  23281.55972646  .00009392  00000-0  60711-3 0  9991,2 51131  53.2163 303.6474 0001592  88.8975 271.2200 15.08858162 95408,6917.825,95.436,540.791,538.589,0.0
51131.0,STARLINK-3388,PAYLOAD,2023-10-09 02:09:05,15.08840313,0.0001821,53.2154,301.2676,101.7957,258.324,8.7202e-05,1.1e-05,0.0,0 STARLINK-3388,1 51131U 22005AD  23282.08965153  .00001100  00000-0  87202-4 0  9999,2 51131  53.2154 301.2676 0001821 101.7957 258.3240 15.08840313 96608,6917.879,95.438,541.004,538.485,0.0
51131.0,STARLINK-3388,PAYLOAD,2023-10-09 08:30:38,15.08848381,0.0001483,53.2161,300.0804,91.2548,268.8614,0.00022174,3.244e-05,0.0,0 STARLINK-3388,1 51131U 22005AD  23282.35460778  .00003244  00000-0  22174-3 0  9999,2 51131  53.2161 300.0804 0001483  91.2548 268.8614 15.08848381 95523,6917.855,95.437,540.746,538.694,0.0
51131.0,STARLINK-3388,PAYLOAD,2023-10-09 18:02:57,15.08845514,0.000142,53.2158,298.2961,79.2792,280.836,0.00020034,2.902e-05,0.0,0 STARLINK-3388,1 51131U 22005AD  23282.75204967  .00002902  00000-0  20034-3 0  9992,2 51131  53.2158 298.2961 0001420  79.2792 280.8360 15.08845514 95582,6917.864,95.437,540.711,538.746,0.0
51131.0,STARLINK-3388,PAYLOAD,2023-10-10 09:56:48,15.08845166,0.0001686,53.2167,295.3215,87.8588,272.2597,0.00013399,1.845e-05,0.0,0 STARLINK-3388,1 51131U 22005AD  23283.41445041  .00001845  00000-0  13399-3 0  9997,2 51131  53.2167 295.3215 0001686  87.8588 272.2597 15.08845166 96800,6917.865,95.437,540.896,538.563,0.0
51131.0,STARLINK-3388,PAYLOAD,2023-10-10 17:53:44,15.08835879,0.0001757,53.2156,293.8344,91.8809,268.2384,5.176e-05,5.36e-06,0.0,0 STARLINK-3388,1 51131U 22005AD  23283.74565560  .00000536  00000-0  51760-4 0  9993,2 51131  53.2156 293.8344 0001757  91.8809 268.2384 15.08835879 96858,6917.893,95.438,540.973,538.543,0.0
51131.0,STARLINK-3388,PAYLOAD,2023-10-11 08:12:13,15.08838734,0.0001697,53.2161,291.1582,92.8849,267.2338,0.00020835,3.029e-05,0.0,0 STARLINK-3388,1 51131U 22005AD  23284.34181786  .00003029  00000-0  20835-3 0  9992,2 51131  53.2161 291.1582 0001697  92.8849 267.2338 15.08838734 95824,6917.884,95.438,540.923,538.575,0.0
51131.0,STARLINK-3388,PAYLOAD,2023-10-12 04:52:13,15.08842616,0.0001655,53.2159,287.2933,91.8955,268.2227,0.00030309,4.539e-05,0.0,0 STARLINK-3388,1 51131U 22005AD  23285.20293981  .00004539  00000-0  30309-3 0  9993,2 51131  53.2159 287.2933 0001655  91.8955 268.2227 15.08842616 97079,6917.872,95.437,540.882,538.592,0.0
51131.0,STARLINK-3388,PAYLOAD,2023-10-12 06:27:37,15.08842594,0.0001535,53.2151,286.9959,95.6099,264.5068,0.00028359,4.229e-05,0.0,0 STARLINK-3388,1 51131U 22005AD  23285.26917922  .00004229  00000-0  28359-3 0  9995,2 51131  53.2151 286.9959 0001535  95.6099 264.5068 15.08842594 95966,6917.872,95.437,540.799,538.676,0.0
51131.0,STARLINK-3388,PAYLOAD,2023-10-12 17:35:18,15.08847008,0.0001613,53.2145,284.914,96.0507,264.0669,0.00034067,5.139e-05,0.0,0 STARLINK-3388,1 51131U 22005AD  23285.73285832  .00005139  00000-0  34067-3 0  9999,2 51131  53.2145 284.9140 0001613  96.0507 264.0669 15.08847008 96031,6917.859,95.437,540.84,538.608,0.0
51131.0,STARLINK-3388,PAYLOAD,2023-10-13 09:29:10,15.08851731,0.0001769,53.2157,281.9374,102.5159,257.6031,0.0003138,4.711e-05,0.0,0 STARLINK-3388,1 51131U 22005AD  23286.39525532  .00004711  00000-0  31380-3 0  9996,2 51131  53.2157 281.9374 0001769 102.5159 257.6031 15.08851731 97252,6917.845,95.437,540.933,538.486,0.0
51131.0,STARLINK-3388,PAYLOAD,2023-10-13 17:26:06,15.08841097,0.0002118,53.2151,280.4535,90.4043,269.7192,0.00013164,1.808e-05,0.0,0 STARLINK-3388,1 51131U 22005AD  23286.72646170  .00001808  00000-0  13164-3 0  9999,2 51131  53.2151 280.4535 0002118  90.4043 269.7192 15.08841097 97307,6917.877,95.437,541.207,538.277,0.0
51131.0,STARLINK-3388,PAYLOAD,2023-10-14 09:19:57,15.08851528,0.0001724,53.2156,277.4781,97.5238,262.595,0.00026245,3.893e-05,0.0,0 STARLINK-3388,1 51131U 22005AD  23287.38885436  .00003893  00000-0  26245-3 0  9992,2 51131  53.2156 277.4781 0001724  97.5238 262.5950 15.08851528 97401,6917.845,95.437,540.903,538.518,0.0
51131.0,STARLINK-3388,PAYLOAD,2023-10-15 04:24:35,15.0883247,0.0001413,53.2153,273.9083,101.2363,258.8788,4.3863e-05,4.1e-06,0.0,0 STARLINK-3388,1 51131U 22005AD  23288.18374473  .00000410  00000-0  43863-4 0  9993,2 51131  53.2153 273.9083 0001413 101.2363 258.8788 15.08832470 97526,6917.903,95.438,540.746,538.791,0.0
51131.0,STARLINK-3388,PAYLOAD,2023-10-15 05:59:58,15.08835145,0.0001406,53.2156,273.6111,98.1373,261.9779,0.00012509,1.703e-05,0.0,0 STARLINK-3388,1 51131U 22005AD  23288.24998482  .00001703  00000-0  12509-3 0  9990,2 51131  53.2156 273.6111 0001406  98.1373 261.9779 15.08835145 96419,6917.895,95.438,540.733,538.788,0.0
51131.0,STARLINK-3388,PAYLOAD,2023-10-15 21:53:50,15.08842789,0.000131,53.2162,270.6386,95.4999,264.6143,0.00050223,7.715e-05,0.0,0 STARLINK-3388,1 51131U 22005AD  23288.91238646  .00007715  00000-0  50223-3 0  9997,2 51131  53.2162 270.6386 0001310  95.4999 264.6143 15.08842789 96513,6917.872,95.437,540.643,538.831,0.0
51131.0,STARLINK-3388,PAYLOAD,2023-10-16 04:15:22,15.08851204,0.0001294,53.2159,269.45,97.1135,263.0004,0.00077071,0.00012003,0.0,0 STARLINK-3388,1 51131U 22005AD  23289.17734549  .00012003  00000-0  77071-3 0  9995,2 51131  53.2159 269.4500 0001294  97.1135 263.0004 15.08851204 97674,6917.846,95.437,540.606,538.816,0.0
51131.0,STARLINK-3388,PAYLOAD,2023-10-16 05:50:45,15.08855007,0.0001283,53.216,269.153,97.7088,262.405,0.00085596,0.00013366,0.0,0 STARLINK-3388,1 51131U 22005AD  23289.24358443  .00013366  00000-0  85596-3 0  9992,2 51131  53.2160 269.1530 0001283  97.7088 262.4050 15.08855007 96563,6917.835,95.437,540.587,538.812,0.0
51131.0,STARLINK-3388,PAYLOAD,2023-10-17 05:41:32,15.08850745,0.0001393,53.2161,264.6907,69.7885,290.3257,0.00036588,5.542e-05,0.0,0 STARLINK-3388,1 51131U 22005AD  23290.23718271  .00005542  00000-0  36588-3 0  9996,2 51131  53.2161 264.6907 0001393  69.7885 290.3257 15.08850745 97832,6917.848,95.437,540.676,538.749,0.0
51131.0,STARLINK-3388,PAYLOAD,2023-10-17 15:13:49,15.0896068,0.0002903,53.2166,262.9065,271.7535,88.3124,0.0046851,0.00075325,0.0,0 STARLINK-3388,1 51131U 22005AD  23290.63460014  .00075325  00000-0  46851-2 0  9998,2 51131  53.2166 262.9065 0002903 271.7535  88.3124 15.08960680 97892,6917.512,95.43,541.385,537.368,0.0
51131.0,STARLINK-3388,PAYLOAD,2023-10-18 02:21:31,15.08922611,8.39e-05,53.2167,260.8251,310.8831,49.2088,0.0023184,0.00036886,0.0,0 STARLINK-3388,1 51131U 22005AD  23291.09828660  .00036886  00000-0  23184-2 0  9997,2 51131  53.2167 260.8251 0000839 310.8831  49.2088 15.08922611 96848,6917.628,95.432,540.073,538.913,0.0
